{"type": "FeatureCollection", "features": [ {"type": "Feature", "properties": {"norad_id": 44506, "name": "GPS BIII-2  (PRN 18)", "group": "gnss", "lat": 11.939197486341339, "lon": 150.08706322693212, "alt_km": 20052.276330519046, "timestamp": "2025-12-16T21:38:57.418087+00:00", "meta": {"OBJECT_NAME": "GPS BIII-2  (PRN 18)", "OBJECT_ID": "2019-056A", "EPOCH": "2025-12-15T09:56:28.644288", "MEAN_MOTION": 2.00566523, "ECCENTRICITY": 0.00577123, "INCLINATION": 55.7205, "RA_OF_ASC_NODE": 338.4461, "ARG_OF_PERICENTER": 198.4931, "MEAN_ANOMALY": 333.0203, "EPHEMERIS_TYPE": 0, "CLASSIFICATION_TYPE": "U", "NORAD_CAT_ID": 44506, "ELEMENT_SET_NO": 999, "REV_AT_EPOCH": 4638, "BSTAR": 0, "MEAN_MOTION_DOT": -8.9e-07, "MEAN_MOTION_DDOT": 0}, "tle": {"line1": "1 44506U 19056A   25349.41422042 -.00000089  00000+0  00000+0 0  9998", "line2": "2 44506  55.7205 338.4461 0057712 198.4931 333.0203  2.00566523 46385"}}, "geometry": {"type": "Point", "coordinates": [150.08706322693212, 11.939197486341339]}}, {"type": "Feature", "properties": {"norad_id": 44542, "name": "BEIDOU-3 M24 (C46)", "group": "gnss", "lat": 23.540391031626406, "lon": -9.310414694913673, "alt_km": 21540.98094627705, "timestamp": "2025-12-16T21:38:57.418099+00:00", "meta": {"OBJECT_NAME": "BEIDOU-3 M24 (C46)", "OBJECT_ID": "2019-061A", "EPOCH": "2025-12-15T14:29:31.339680", "MEAN_MOTION": 1.8622936, "ECCENTRICITY": 0.00095934, "INCLINATION": 54.4001, "RA_OF_ASC_NODE": 188.9192, "ARG_OF_PERICENTER": 24.73, "MEAN_ANOMALY": 335.3854, "EPHEMERIS_TYPE": 0, "CLASSIFICATION_TYPE": "U", "NORAD_CAT_ID": 44542, "ELEMENT_SET_NO": 999, "REV_AT_EPOCH": 4237, "BSTAR": 0, "MEAN_MOTION_DOT": 1.14e-06, "MEAN_MOTION_DDOT": 0}, "tle": {"line1": "1 44542U 19061A   25349.60383495  .00000114  00000+0  00000+0 0  9991", "line2": "2 44542  54.4001 188.9192 0009593  24.7300 335.3854  1.86229360 42379"}}, "geometry": {"type": "Point", "coordinates": [-9.310414694913673, 23.540391031626406]}}, {"type": "Feature", "properties": {"norad_id": 44543, "name": "BEIDOU-3 M23 (C45)", "group": "gnss", "lat": 46.526280959735004, "lon": -122.04339217795643, "alt_km": 21509.466358659454, "timestamp": "2025-12-16T21:38:57.418110+00:00", "meta": {"OBJECT_NAME": "BEIDOU-3 M23 (C45)", "OBJECT_ID": "2019-061B", "EPOCH": "2025-12-16T06:33:39.409920", "MEAN_MOTION": 1.86227705, "ECCENTRICITY": 0.00061054, "INCLINATION": 54.399, "RA_OF_ASC_NODE": 188.865, "ARG_OF_PERICENTER": 24.5789, "MEAN_ANOMALY": 337.1686, "EPHEMERIS_TYPE": 0, "CLASSIFICATION_TYPE": "U", "NORAD_CAT_ID": 44543, "ELEMENT_SET_NO": 999, "REV_AT_EPOCH": 4239, "BSTAR": 0, "MEAN_MOTION_DOT": 1.15e-06, "MEAN_MOTION_DDOT": 0}, "tle": {"line1": "1 44543U 19061B   25350.27337280  .00000115  00000+0  00000+0 0  9999", "line2": "2 44543  54.3990 188.8650 0006105  24.5789 337.1686  1.86227705 42395"}}, "geometry": {"type": "Point", "coordinates": [-122.04339217795643, 46.526280959735004]}}, {"type": "Feature", "properties": {"norad_id": 44624, "name": "EUTELSAT 5 WEST B (EGNOS/PRN 121)", "group": "gnss", "lat": 0.09314853127708558, "lon": 45.54906502175993, "alt_km": 35796.07584701366, "timestamp": "2025-12-16T21:38:57.418121+00:00", "meta": {"OBJECT_NAME": "EUTELSAT 5 WEST B (EGNOS/PRN 121)", "OBJECT_ID": "2019-067A", "EPOCH": "2025-12-16T06:29:02.351904", "MEAN_MOTION": 1.00273387, "ECCENTRICITY": 0.00032198, "INCLINATION": 0.0722, "RA_OF_ASC_NODE": 327.4568, "ARG_OF_PERICENTER": 297.9911, "MEAN_ANOMALY": 271.9836, "EPHEMERIS_TYPE": 0, "CLASSIFICATION_TYPE": "U", "NORAD_CAT_ID": 44624, "ELEMENT_SET_NO": 999, "REV_AT_EPOCH": 2260, "BSTAR": 0, "MEAN_MOTION_DOT": -1.8e-07, "MEAN_MOTION_DDOT": 0}, "tle": {"line1": "1 44624U 19067A   25350.27016611 -.00000018  00000+0  00000+0 0  9990", "line2": "2 44624   0.0722 327.4568 0003219 297.9911 271.9836  1.00273387 22608"}}, "geometry": {"type": "Point", "coordinates": [45.54906502175993, 0.09314853127708558]}}, {"type": "Feature", "properties": {"norad_id": 44709, "name": "BEIDOU-3 IGSO-3 (C40)", "group": "gnss", "lat": -45.796596462952586, "lon": 148.54127819999545, "alt_km": 35676.68888468544, "timestamp": "2025-12-16T21:38:57.418133+00:00", "meta": {"OBJECT_NAME": "BEIDOU-3 IGSO-3 (C40)", "OBJECT_ID": "2019-073A", "EPOCH": "2025-11-20T07:11:22.740000", "MEAN_MOTION": 1.00250097, "ECCENTRICITY": 0.0044538, "INCLINATION": 55.163, "RA_OF_ASC_NODE": 283.159, "ARG_OF_PERICENTER": 191.5856, "MEAN_ANOMALY": 168.2409, "EPHEMERIS_TYPE": 0, "CLASSIFICATION_TYPE": "U", "NORAD_CAT_ID": 44709, "ELEMENT_SET_NO": 999, "REV_AT_EPOCH": 2236, "BSTAR": 0, "MEAN_MOTION_DOT": -2.06e-06, "MEAN_MOTION_DDOT": 0}, "tle": {"line1": "1 44709U 19073A   25324.29956875 -.00000206  00000+0  00000+0 0  9998", "line2": "2 44709  55.1630 283.1590 0044538 191.5856 168.2409  1.00250097 22360"}}, "geometry": {"type": "Point", "coordinates": [148.54127819999545, -45.796596462952586]}}, {"type": "Feature", "properties": {"norad_id": 44793, "name": "BEIDOU-3 M22 (C44)", "group": "gnss", "lat": -52.317942948391895, "lon": -164.24288390265284, "alt_km": 21543.114611054847, "timestamp": "2025-12-16T21:38:57.418148+00:00", "meta": {"OBJECT_NAME": "BEIDOU-3 M22 (C44)", "OBJECT_ID": "2019-078A", "EPOCH": "2025-12-15T23:32:20.992992", "MEAN_MOTION": 1.86231869, "ECCENTRICITY": 0.00058075, "INCLINATION": 54.1051, "RA_OF_ASC_NODE": 306.2718, "ARG_OF_PERICENTER": 23.5551, "MEAN_ANOMALY": 336.4582, "EPHEMERIS_TYPE": 0, "CLASSIFICATION_TYPE": "U", "NORAD_CAT_ID": 44793, "ELEMENT_SET_NO": 999, "REV_AT_EPOCH": 4123, "BSTAR": 0, "MEAN_MOTION_DOT": -9.7e-07, "MEAN_MOTION_DDOT": 0}, "tle": {"line1": "1 44793U 19078A   25349.98079853 -.00000097  00000+0  00000+0 0  9999", "line2": "2 44793  54.1051 306.2718 0005807  23.5551 336.4582  1.86231869 41238"}}, "geometry": {"type": "Point", "coordinates": [-164.24288390265284, -52.317942948391895]}}, {"type": "Feature", "properties": {"norad_id": 44794, "name": "BEIDOU-3 M21 (C43)", "group": "gnss", "lat": 11.802666114004914, "lon": 117.47544926190785, "alt_km": 21537.124888951315, "timestamp": "2025-12-16T21:38:57.418159+00:00", "meta": {"OBJECT_NAME": "BEIDOU-3 M21 (C43)", "OBJECT_ID": "2019-078B", "EPOCH": "2025-12-15T13:57:29.064096", "MEAN_MOTION": 1.86227547, "ECCENTRICITY": 0.00039999, "INCLINATION": 54.0788, "RA_OF_ASC_NODE": 306.2509, "ARG_OF_PERICENTER": 11.1298, "MEAN_ANOMALY": 348.8661, "EPHEMERIS_TYPE": 0, "CLASSIFICATION_TYPE": "U", "NORAD_CAT_ID": 44794, "ELEMENT_SET_NO": 999, "REV_AT_EPOCH": 4123, "BSTAR": 0, "MEAN_MOTION_DOT": -9.9e-07, "MEAN_MOTION_DDOT": 0}, "tle": {"line1": "1 44794U 19078B   25349.58158639 -.00000099  00000+0  00000+0 0  9998", "line2": "2 44794  54.0788 306.2509 0003999  11.1298 348.8661  1.86227547 41237"}}, "geometry": {"type": "Point", "coordinates": [117.47544926190785, 11.802666114004914]}}, {"type": "Feature", "properties": {"norad_id": 44850, "name": "COSMOS 2544 (759)", "group": "gnss", "lat": -36.88832262079228, "lon": 59.8110838850089, "alt_km": 19121.724781315515, "timestamp": "2025-12-16T21:38:57.418172+00:00", "meta": {"OBJECT_NAME": "COSMOS 2544 (759)", "OBJECT_ID": "2019-088A", "EPOCH": "2025-12-12T17:34:49.236384", "MEAN_MOTION": 2.13101902, "ECCENTRICITY": 0.001403, "INCLINATION": 65.4597, "RA_OF_ASC_NODE": 79.9587, "ARG_OF_PERICENTER": 249.9371, "MEAN_ANOMALY": 109.9261, "EPHEMERIS_TYPE": 0, "CLASSIFICATION_TYPE": "U", "NORAD_CAT_ID": 44850, "ELEMENT_SET_NO": 999, "REV_AT_EPOCH": 4674, "BSTAR": 0, "MEAN_MOTION_DOT": -4.1e-07, "MEAN_MOTION_DDOT": 0}, "tle": {"line1": "1 44850U 19088A   25346.73251431 -.00000041  00000+0  00000+0 0  9997", "line2": "2 44850  65.4597  79.9587 0014030 249.9371 109.9261  2.13101902 46745"}}, "geometry": {"type": "Point", "coordinates": [59.8110838850089, -36.88832262079228]}}, {"type": "Feature", "properties": {"norad_id": 44864, "name": "BEIDOU-3 M19 (C41)", "group": "gnss", "lat": 1.0491451409444892, "lon": 69.52976836739587, "alt_km": 21516.10503628354, "timestamp": "2025-12-16T21:38:57.418189+00:00", "meta": {"OBJECT_NAME": "BEIDOU-3 M19 (C41)", "OBJECT_ID": "2019-090A", "EPOCH": "2025-12-10T23:47:39.658272", "MEAN_MOTION": 1.86231263, "ECCENTRICITY": 0.0017877, "INCLINATION": 56.392, "RA_OF_ASC_NODE": 69.0187, "ARG_OF_PERICENTER": 285.2046, "MEAN_ANOMALY": 73.1126, "EPHEMERIS_TYPE": 0, "CLASSIFICATION_TYPE": "U", "NORAD_CAT_ID": 44864, "ELEMENT_SET_NO": 999, "REV_AT_EPOCH": 4072, "BSTAR": 0, "MEAN_MOTION_DOT": -6e-07, "MEAN_MOTION_DDOT": 0}, "tle": {"line1": "1 44864U 19090A   25344.99143123 -.00000060  00000+0  00000+0 0  9990", "line2": "2 44864  56.3920  69.0187 0017877 285.2046  73.1126  1.86231263 40726"}}, "geometry": {"type": "Point", "coordinates": [69.52976836739587, 1.0491451409444892]}}, {"type": "Feature", "properties": {"norad_id": 44865, "name": "BEIDOU-3 M20 (C42)", "group": "gnss", "lat": 56.41413100181298, "lon": 160.28100160081135, "alt_km": 21558.42135075676, "timestamp": "2025-12-16T21:38:57.418200+00:00", "meta": {"OBJECT_NAME": "BEIDOU-3 M20 (C42)", "OBJECT_ID": "2019-090B", "EPOCH": "2025-12-10T20:36:05.507712", "MEAN_MOTION": 1.86231317, "ECCENTRICITY": 0.0014897, "INCLINATION": 56.3937, "RA_OF_ASC_NODE": 69.0576, "ARG_OF_PERICENTER": 298.003, "MEAN_ANOMALY": 60.7372, "EPHEMERIS_TYPE": 0, "CLASSIFICATION_TYPE": "U", "NORAD_CAT_ID": 44865, "ELEMENT_SET_NO": 999, "REV_AT_EPOCH": 4070, "BSTAR": 0, "MEAN_MOTION_DOT": -5.8e-07, "MEAN_MOTION_DDOT": 0}, "tle": {"line1": "1 44865U 19090B   25344.85839708 -.00000058  00000+0  00000+0 0  9994", "line2": "2 44865  56.3937  69.0576 0014897 298.0030  60.7372  1.86231317 40704"}}, "geometry": {"type": "Point", "coordinates": [160.28100160081135, 56.41413100181298]}}]}